{"type": "FeatureCollection", "features": [ {"type": "Feature", "properties": {"norad_id": 57401, "name": "TIANMU-1 09", "group": "weather", "lat": -82.62573513597052, "lon": 132.3164206688702, "alt_km": 493.7663118654036, "timestamp": "2025-12-10T05:46:13.440720+00:00", "meta": {"OBJECT_NAME": "TIANMU-1 09", "OBJECT_ID": "2023-101C", "EPOCH": "2025-12-09T20:44:20.858784", "MEAN_MOTION": 15.28017101, "ECCENTRICITY": 0.0006817, "INCLINATION": 97.2822, "RA_OF_ASC_NODE": 33.0906, "ARG_OF_PERICENTER": 91.5267, "MEAN_ANOMALY": 268.6753, "EPHEMERIS_TYPE": 0, "CLASSIFICATION_TYPE": "U", "NORAD_CAT_ID": 57401, "ELEMENT_SET_NO": 999, "REV_AT_EPOCH": 13271, "BSTAR": 0.0004251, "MEAN_MOTION_DOT": 0.00011559, "MEAN_MOTION_DDOT": 0}, "tle": {"line1": "1 57401U 23101C   25343.86413031  .00011559  00000+0  42510-3 0  9992", "line2": "2 57401  97.2822  33.0906 0006817  91.5267 268.6753 15.28017101132719"}}, "geometry": {"type": "Point", "coordinates": [132.3164206688702, -82.62573513597052]}}, {"type": "Feature", "properties": {"norad_id": 57402, "name": "TIANMU-1 10", "group": "weather", "lat": 78.30344392688455, "lon": -3.8915878086806814, "alt_km": 468.64779966912374, "timestamp": "2025-12-10T05:46:13.440730+00:00", "meta": {"OBJECT_NAME": "TIANMU-1 10", "OBJECT_ID": "2023-101D", "EPOCH": "2025-12-09T19:59:17.623968", "MEAN_MOTION": 15.28006823, "ECCENTRICITY": 0.0008569, "INCLINATION": 97.2902, "RA_OF_ASC_NODE": 33.9067, "ARG_OF_PERICENTER": 91.7649, "MEAN_ANOMALY": 268.4572, "EPHEMERIS_TYPE": 0, "CLASSIFICATION_TYPE": "U", "NORAD_CAT_ID": 57402, "ELEMENT_SET_NO": 999, "REV_AT_EPOCH": 13270, "BSTAR": 0.00043272, "MEAN_MOTION_DOT": 0.00011769, "MEAN_MOTION_DDOT": 0}, "tle": {"line1": "1 57402U 23101D   25343.83284287  .00011769  00000+0  43272-3 0  9998", "line2": "2 57402  97.2902  33.9067 0008569  91.7649 268.4572 15.28006823132703"}}, "geometry": {"type": "Point", "coordinates": [-3.8915878086806814, 78.30344392688455]}}, {"type": "Feature", "properties": {"norad_id": 57490, "name": "FENGYUN 3F", "group": "weather", "lat": -51.21583821526611, "lon": -138.42208784899418, "alt_km": 832.9526623276179, "timestamp": "2025-12-10T05:46:13.440743+00:00", "meta": {"OBJECT_NAME": "FENGYUN 3F", "OBJECT_ID": "2023-111A", "EPOCH": "2025-12-09T20:13:30.392832", "MEAN_MOTION": 14.19892553, "ECCENTRICITY": 6.54e-05, "INCLINATION": 98.7087, "RA_OF_ASC_NODE": 52.1828, "ARG_OF_PERICENTER": 96.3722, "MEAN_ANOMALY": 263.7529, "EPHEMERIS_TYPE": 0, "CLASSIFICATION_TYPE": "U", "NORAD_CAT_ID": 57490, "ELEMENT_SET_NO": 999, "REV_AT_EPOCH": 12199, "BSTAR": 0.00010378, "MEAN_MOTION_DOT": 1.77e-06, "MEAN_MOTION_DDOT": 0}, "tle": {"line1": "1 57490U 23111A   25343.84271288  .00000177  00000+0  10378-3 0  9996", "line2": "2 57490  98.7087  52.1828 0000654  96.3722 263.7529 14.19892553121999"}}, "geometry": {"type": "Point", "coordinates": [-138.42208784899418, -51.21583821526611]}}, {"type": "Feature", "properties": {"norad_id": 58584, "name": "ARKTIKA-M 2", "group": "weather", "lat": 38.966271867021995, "lon": -28.952782755273123, "alt_km": 19994.300801655016, "timestamp": "2025-12-10T05:46:13.440755+00:00", "meta": {"OBJECT_NAME": "ARKTIKA-M 2", "OBJECT_ID": "2023-198A", "EPOCH": "2025-12-08T20:10:13.977120", "MEAN_MOTION": 2.0060476, "ECCENTRICITY": 0.68646991, "INCLINATION": 63.2247, "RA_OF_ASC_NODE": 175.3152, "ARG_OF_PERICENTER": 268.1185, "MEAN_ANOMALY": 18.8267, "EPHEMERIS_TYPE": 0, "CLASSIFICATION_TYPE": "U", "NORAD_CAT_ID": 58584, "ELEMENT_SET_NO": 999, "REV_AT_EPOCH": 1450, "BSTAR": 0, "MEAN_MOTION_DOT": 1.66e-06, "MEAN_MOTION_DDOT": 0}, "tle": {"line1": "1 58584U 23198A   25342.84043955  .00000166  00000+0  00000+0 0  9998", "line2": "2 58584  63.2247 175.3152 6864699 268.1185  18.8267  2.00604760 14506"}}, "geometry": {"type": "Point", "coordinates": [-28.952782755273123, 38.966271867021995]}}, {"type": "Feature", "properties": {"norad_id": 58645, "name": "TIANMU-1 11", "group": "weather", "lat": -67.74520904903645, "lon": 22.323261281626646, "alt_km": 494.5520673555384, "timestamp": "2025-12-10T05:46:13.440770+00:00", "meta": {"OBJECT_NAME": "TIANMU-1 11", "OBJECT_ID": "2023-205A", "EPOCH": "2025-12-09T20:37:13.609056", "MEAN_MOTION": 15.24544377, "ECCENTRICITY": 0.0008148, "INCLINATION": 97.3609, "RA_OF_ASC_NODE": 3.5328, "ARG_OF_PERICENTER": 322.2029, "MEAN_ANOMALY": 37.8635, "EPHEMERIS_TYPE": 0, "CLASSIFICATION_TYPE": "U", "NORAD_CAT_ID": 58645, "ELEMENT_SET_NO": 999, "REV_AT_EPOCH": 10865, "BSTAR": 0.00040058, "MEAN_MOTION_DOT": 9.803e-05, "MEAN_MOTION_DDOT": 0}, "tle": {"line1": "1 58645U 23205A   25343.85918529  .00009803  00000+0  40058-3 0  9993", "line2": "2 58645  97.3609   3.5328 0008148 322.2029  37.8635 15.24544377108650"}}, "geometry": {"type": "Point", "coordinates": [22.323261281626646, -67.74520904903645]}}, {"type": "Feature", "properties": {"norad_id": 58646, "name": "TIANMU-1 12", "group": "weather", "lat": 35.16844988396036, "lon": -171.06107461664212, "alt_km": 494.0866647347666, "timestamp": "2025-12-10T05:46:13.440781+00:00", "meta": {"OBJECT_NAME": "TIANMU-1 12", "OBJECT_ID": "2023-205B", "EPOCH": "2025-12-09T21:15:42.555744", "MEAN_MOTION": 15.24425295, "ECCENTRICITY": 0.0006046, "INCLINATION": 97.3597, "RA_OF_ASC_NODE": 3.3655, "ARG_OF_PERICENTER": 304.2794, "MEAN_ANOMALY": 55.7871, "EPHEMERIS_TYPE": 0, "CLASSIFICATION_TYPE": "U", "NORAD_CAT_ID": 58646, "ELEMENT_SET_NO": 999, "REV_AT_EPOCH": 10864, "BSTAR": 0.00041839, "MEAN_MOTION_DOT": 0.00010202, "MEAN_MOTION_DDOT": 0}, "tle": {"line1": "1 58646U 23205B   25343.88590921  .00010202  00000+0  41839-3 0  9992", "line2": "2 58646  97.3597   3.3655 0006046 304.2794  55.7871 15.24425295108649"}}, "geometry": {"type": "Point", "coordinates": [-171.06107461664212, 35.16844988396036]}}, {"type": "Feature", "properties": {"norad_id": 58647, "name": "TIANMU-1 13", "group": "weather", "lat": -39.62304553442613, "lon": 10.059136196396489, "alt_km": 495.7866681018013, "timestamp": "2025-12-10T05:46:13.440834+00:00", "meta": {"OBJECT_NAME": "TIANMU-1 13", "OBJECT_ID": "2023-205C", "EPOCH": "2025-12-09T20:29:36.802752", "MEAN_MOTION": 15.24468145, "ECCENTRICITY": 0.0006048, "INCLINATION": 97.3624, "RA_OF_ASC_NODE": 3.5338, "ARG_OF_PERICENTER": 280.519, "MEAN_ANOMALY": 79.5366, "EPHEMERIS_TYPE": 0, "CLASSIFICATION_TYPE": "U", "NORAD_CAT_ID": 58647, "ELEMENT_SET_NO": 999, "REV_AT_EPOCH": 10863, "BSTAR": 0.00040835, "MEAN_MOTION_DOT": 9.968e-05, "MEAN_MOTION_DDOT": 0}, "tle": {"line1": "1 58647U 23205C   25343.85389818  .00009968  00000+0  40835-3 0  9993", "line2": "2 58647  97.3624   3.5338 0006048 280.5190  79.5366 15.24468145108632"}}, "geometry": {"type": "Point", "coordinates": [10.059136196396489, -39.62304553442613]}}, {"type": "Feature", "properties": {"norad_id": 58648, "name": "TIANMU-1 14", "group": "weather", "lat": 50.63635485345867, "lon": -5.795390875263631, "alt_km": 490.66316480061323, "timestamp": "2025-12-10T05:46:13.440846+00:00", "meta": {"OBJECT_NAME": "TIANMU-1 14", "OBJECT_ID": "2023-205D", "EPOCH": "2025-12-09T20:05:39.727104", "MEAN_MOTION": 15.24451232, "ECCENTRICITY": 0.0006905, "INCLINATION": 97.3556, "RA_OF_ASC_NODE": 2.8689, "ARG_OF_PERICENTER": 285.7521, "MEAN_ANOMALY": 74.2955, "EPHEMERIS_TYPE": 0, "CLASSIFICATION_TYPE": "U", "NORAD_CAT_ID": 58648, "ELEMENT_SET_NO": 999, "REV_AT_EPOCH": 10863, "BSTAR": 0.00039513, "MEAN_MOTION_DOT": 9.639e-05, "MEAN_MOTION_DDOT": 0}, "tle": {"line1": "1 58648U 23205D   25343.83726536  .00009639  00000+0  39513-3 0  9990", "line2": "2 58648  97.3556   2.8689 0006905 285.7521  74.2955 15.24451232108630"}}, "geometry": {"type": "Point", "coordinates": [-5.795390875263631, 50.63635485345867]}}, {"type": "Feature", "properties": {"norad_id": 58660, "name": "TIANMU-1 19", "group": "weather", "lat": -80.32756630058648, "lon": 145.3330083388419, "alt_km": 487.0926324151078, "timestamp": "2025-12-10T05:46:13.440856+00:00", "meta": {"OBJECT_NAME": "TIANMU-1 19", "OBJECT_ID": "2023-208A", "EPOCH": "2025-12-09T17:33:40.404960", "MEAN_MOTION": 15.27761661, "ECCENTRICITY": 0.0004063, "INCLINATION": 97.4389, "RA_OF_ASC_NODE": 94.775, "ARG_OF_PERICENTER": 266.5058, "MEAN_ANOMALY": 93.5716, "EPHEMERIS_TYPE": 0, "CLASSIFICATION_TYPE": "U", "NORAD_CAT_ID": 58660, "ELEMENT_SET_NO": 999, "REV_AT_EPOCH": 10836, "BSTAR": 0.00051751, "MEAN_MOTION_DOT": 0.00013974, "MEAN_MOTION_DDOT": 0}, "tle": {"line1": "1 58660U 23208A   25343.73171765  .00013974  00000+0  51751-3 0  9999", "line2": "2 58660  97.4389  94.7750 0004063 266.5058  93.5716 15.27761661108365"}}, "geometry": {"type": "Point", "coordinates": [145.3330083388419, -80.32756630058648]}}, {"type": "Feature", "properties": {"norad_id": 58661, "name": "TIANMU-1 20", "group": "weather", "lat": -20.13562759877331, "lon": 98.47137679191552, "alt_km": 482.22828496713464, "timestamp": "2025-12-10T05:46:13.440866+00:00", "meta": {"OBJECT_NAME": "TIANMU-1 20", "OBJECT_ID": "2023-208B", "EPOCH": "2025-12-09T20:26:05.292096", "MEAN_MOTION": 15.28957488, "ECCENTRICITY": 0.0006309, "INCLINATION": 97.4327, "RA_OF_ASC_NODE": 95.3393, "ARG_OF_PERICENTER": 278.1223, "MEAN_ANOMALY": 81.9301, "EPHEMERIS_TYPE": 0, "CLASSIFICATION_TYPE": "U", "NORAD_CAT_ID": 58661, "ELEMENT_SET_NO": 999, "REV_AT_EPOCH": 10845, "BSTAR": 0.00052034, "MEAN_MOTION_DOT": 0.0001458, "MEAN_MOTION_DDOT": 0}, "tle": {"line1": "1 58661U 23208B   25343.85145014  .00014580  00000+0  52034-3 0  9990", "line2": "2 58661  97.4327  95.3393 0006309 278.1223  81.9301 15.28957488108452"}}, "geometry": {"type": "Point", "coordinates": [98.47137679191552, -20.13562759877331]}}]}